[{"OBJECT_NAME":"STARLINK-1991","OBJECT_ID":"2021-009AR","EPOCH":"2026-03-09T22:30:21.180960","MEAN_MOTION":15.66805566,"ECCENTRICITY":0.00042699,"INCLINATION":53.0455,"RA_OF_ASC_NODE":331.5421,"ARG_OF_PERICENTER":79.3499,"MEAN_ANOMALY":280.7997,"EPHEMERIS_TYPE":0,"CLASSIFICATION_TYPE":"U","NORAD_CAT_ID":47587,"ELEMENT_SET_NO":999,"REV_AT_EPOCH":28152,"BSTAR":0.00092748731,"MEAN_MOTION_DOT":0.00100464,"MEAN_MOTION_DDOT":0},{"OBJECT_NAME":"STARLINK-11324 [DTC]","OBJECT_ID":"2024-204F","EPOCH":"2026-03-09T22:45:07.403904","MEAN_MOTION":15.69704656,"ECCENTRICITY":8.87e-5,"INCLINATION":53.1585,"RA_OF_ASC_NODE":355.1034,"ARG_OF_PERICENTER":125.1958,"MEAN_ANOMALY":234.9143,"EPHEMERIS_TYPE":0,"CLASSIFICATION_TYPE":"U","NORAD_CAT_ID":61879,"ELEMENT_SET_NO":999,"REV_AT_EPOCH":7695,"BSTAR":2.191262e-6,"MEAN_MOTION_DOT":-3.23e-6,"MEAN_MOTION_DDOT":0}]
